NORAD_CAT_ID,OBJECT_NAME,OBJECT_TYPE,EPOCH,MEAN_MOTION,ECCENTRICITY,INCLINATION,RA_OF_ASC_NODE,ARG_OF_PERICENTER,MEAN_ANOMALY,BSTAR,MEAN_MOTION_DOT,MEAN_MOTION_DDOT,TLE_LINE0,TLE_LINE1,TLE_LINE2,SEMIMAJOR_AXIS,PERIOD,APOGEE,PERIGEE,DECAYED
49446.0,STARLINK-3099,PAYLOAD,2022-02-28 06:00:00,15.25481851,0.0001771999999999,53.2172,330.8419,43.6703,157.5251,-0.027532,-0.00655626,0.0,0 STARLINK-3099,1 49446U 21104AQ  22059.25001157 -.00655626  00000-0 -27532-1 0  9996,2 49446  53.2172 330.8419 0001772  43.6703 157.5251 15.25481851 17999,6867.476,94.396,490.5580000000001,488.124,0.0
49446.0,STARLINK-3099,PAYLOAD,2022-02-28 14:00:01,15.2501543,0.0001740999999999,53.2174,329.306,43.4995,189.0063,-0.027938,-0.00655959,0.0,0 STARLINK-3099,1 49446U 21104AQ  22059.58334491 -.00655959  00000-0 -27938-1 0  9991,2 49446  53.2174 329.3060 0001741  43.4995 189.0063 15.25015430  3658,6868.876,94.425,491.937,489.545,0.0
49446.0,STARLINK-3099,PAYLOAD,2022-02-28 22:00:00,15.24549375,0.000201,53.2175,327.7743,34.9663,228.2871,-0.028376,-0.00656917,0.0,0 STARLINK-3099,1 49446U 21104AQ  22059.91667824 -.00656917  00000-0 -28376-1 0  9999,2 49446  53.2175 327.7743 0002010  34.9663 228.2871 15.24549375  3647,6870.276,94.454,493.522,490.76,0.0
49446.0,STARLINK-3099,PAYLOAD,2022-03-01 06:00:00,15.24084113,0.0001601,53.2172,326.2432,46.3897,247.0504,-0.028856,-0.00658582,0.0,0 STARLINK-3099,1 49446U 21104AQ  22060.25001157 -.00658582  00000-0 -28856-1 0  9992,2 49446  53.2172 326.2432 0001601  46.3897 247.0504 15.24084113 18141,6871.674,94.483,494.639,492.439,0.0
49446.0,STARLINK-3099,PAYLOAD,2022-03-01 14:00:01,15.23614841,0.0001788,53.2174,324.7107,36.0359,287.0337,-0.029076,-0.00654661,0.0,0 STARLINK-3099,1 49446U 21104AQ  22060.58334491 -.00654661  00000-0 -29076-1 0  9997,2 49446  53.2174 324.7107 0001788  36.0359 287.0337 15.23614841  3643,6873.085,94.512,496.179,493.721,0.0
49446.0,STARLINK-3099,PAYLOAD,2022-03-01 22:00:01,15.23150894,0.0001896,53.2175,323.1823,33.6593,318.5387,-0.029689,-0.00658949,0.0,0 STARLINK-3099,1 49446U 21104AQ  22060.91668981 -.00658949  00000-0 -29689-1 0  9991,2 49446  53.2175 323.1823 0001896  33.6593 318.5387 15.23150894  3654,6874.481,94.541,497.649,495.042,0.0
49446.0,STARLINK-3099,PAYLOAD,2022-03-02 14:00:01,15.22215578,0.0001607,53.2174,320.1252,40.4066,8.1808,-0.030367,-0.00655715,0.0,0 STARLINK-3099,1 49446U 21104AQ  22061.58334491 -.00655715  00000-0 -30367-1 0  9994,2 49446  53.2174 320.1252 0001607  40.4066   8.1808 15.22215578 18349,6877.295999999999,94.599,500.266,498.056,0.0
49446.0,STARLINK-3099,PAYLOAD,2022-03-02 22:00:00,15.21751138,0.0001903,53.2175,318.6004,34.1175,41.853,-0.030964,-0.00659235,0.0,0 STARLINK-3099,1 49446U 21104AQ  22061.91667824 -.00659235  00000-0 -30964-1 0  9994,2 49446  53.2175 318.6004 0001903  34.1175  41.8530 15.21751138  3646,6878.695,94.628,501.87,499.251,0.0
49446.0,STARLINK-3099,PAYLOAD,2022-03-03 14:00:01,15.20817639,0.000184,53.2173,315.5496,38.2246,90.8342,-0.031808,-0.0065882999999999,0.0,0 STARLINK-3099,1 49446U 21104AQ  22062.58334491 -.00658830  00000-0 -31808-1 0  9997,2 49446  53.2173 315.5496 0001840  38.2246  90.8342 15.20817639 18503,6881.51,94.686,504.641,502.109,0.0
49446.0,STARLINK-3099,PAYLOAD,2022-03-03 22:00:00,15.20349875,0.0002057,53.2174,314.0281,34.613,120.1483,-0.032146,-0.00656914,0.0,0 STARLINK-3099,1 49446U 21104AQ  22062.91667824 -.00656914  00000-0 -32146-1 0  9990,2 49446  53.2174 314.0281 0002057  34.6130 120.1483 15.20349875  3658,6882.920999999999,94.715,506.202,503.371,0.0
49446.0,STARLINK-3099,PAYLOAD,2022-03-04 14:00:01,15.19418323,0.0001872,53.2172,310.9836,41.1735,163.375,-0.03318,-0.00666769,0.0,0 STARLINK-3099,1 49446U 21104AQ  22063.58335648 -.00666769  00000-0 -33180-1 0  9998,2 49446  53.2172 310.9836 0001872  41.1735 163.3750 15.19418323 18650,6885.734,94.773,508.888,506.31,0.0
49446.0,STARLINK-3099,PAYLOAD,2022-03-04 22:00:00,15.18949385,0.0002159,53.2173,309.4656,33.6886,194.8173,-0.033408,-0.00662552,0.0,0 STARLINK-3099,1 49446U 21104AQ  22063.91667824 -.00662552  00000-0 -33408-1 0  9998,2 49446  53.2173 309.4656 0002159  33.6886 194.8173 15.18949385  3643,6887.151999999999,94.802,510.503,507.53,0.0
49446.0,STARLINK-3099,PAYLOAD,2022-03-05 06:00:00,15.18383606,0.0001973,53.217,307.9454,43.6713,208.3486,-0.026652,-0.0052242,0.0,0 STARLINK-3099,1 49446U 21104AQ  22064.25001157 -.00522420  00000-0 -26652-1 0  9999,2 49446  53.2170 307.9454 0001973  43.6713 208.3486 15.18383606  3615,6888.861999999999,94.838,512.086,509.36800000000005,0.0
49446.0,STARLINK-3099,PAYLOAD,2022-03-05 14:00:01,15.18017208,0.0001818,53.2173,306.4276,40.0344,234.8319,-0.034423,-0.00664314,0.0,0 STARLINK-3099,1 49446U 21104AQ  22064.58334491 -.00664314  00000-0 -34423-1 0  9999,2 49446  53.2173 306.4276 0001818  40.0344 234.8319 15.18017208  3625,6889.971,94.861,513.0880000000002,510.583,0.0
49446.0,STARLINK-3099,PAYLOAD,2022-03-05 16:00:00,15.1788297,0.0001852,53.2174,306.0478,36.6292,333.8821,-0.0330279999999999,-0.0063008,0.0,0 STARLINK-3099,1 49446U 21104AQ  22064.66667824 -.00630080  00000-0 -33028-1 0  9990,2 49446  53.2174 306.0478 0001852  36.6292 333.8821 15.17882970 18817,6890.377,94.869,513.518,510.966,0.0
49446.0,STARLINK-3099,PAYLOAD,2022-03-05 22:00:01,15.17550482,0.0001905,53.2173,304.9129,38.5108,258.7567,-0.034857,-0.00663726,0.0,0 STARLINK-3099,1 49446U 21104AQ  22064.91668981 -.00663726  00000-0 -34857-1 0  9997,2 49446  53.2173 304.9129 0001905  38.5108 258.7567 15.17550482  3650,6891.3830000000025,94.89,514.561,511.936,0.0
49446.0,STARLINK-3099,PAYLOAD,2022-03-06 06:00:00,15.17086777,0.0001583,53.2172,303.3973,46.6771,272.3046,-0.035607,-0.00668645,0.0,0 STARLINK-3099,1 49446U 21104AQ  22065.25001157 -.00668645  00000-0 -35607-1 0  9990,2 49446  53.2172 303.3973 0001583  46.6771 272.3046 15.17086777 18906,6892.788000000001,94.919,515.744,513.561,0.0
49446.0,STARLINK-3099,PAYLOAD,2022-03-06 14:00:01,15.16551012,0.000197,53.2174,301.8803,33.0685,307.1658,-0.030454,-0.00563497,0.0,0 STARLINK-3099,1 49446U 21104AQ  22065.58334491 -.00563497  00000-0 -30454-1 0  9990,2 49446  53.2174 301.8803 0001970  33.0685 307.1658 15.16551012  3613,6894.411,94.952,517.634,514.918,0.0
49446.0,STARLINK-3099,PAYLOAD,2022-03-06 22:00:00,15.16152258,0.0002013,53.2173,300.37,31.403,329.4536,-0.036432,-0.00666233,0.0,0 STARLINK-3099,1 49446U 21104AQ  22065.91667824 -.00666233  00000-0 -36432-1 0  9990,2 49446  53.2173 300.3700 0002013  31.4030 329.4536 15.16152258  3641,6895.62,94.977,518.873,516.097,0.0
49446.0,STARLINK-3099,PAYLOAD,2022-03-07 12:00:00,15.15332772,0.0001544,53.2173,297.7229,50.3344,255.325,-0.036975,-0.00660827,0.0,0 STARLINK-3099,1 49446U 21104AQ  22066.50001157 -.00660827  00000-0 -36975-1 0  9992,2 49446  53.2173 297.7229 0001544  50.3344 255.3250 15.15332772 19098,6898.105,95.029,521.036,518.905,0.0
49446.0,STARLINK-3099,PAYLOAD,2022-03-07 22:00:00,15.14666671,0.0001719,53.2175,295.8354,45.8403,13.6751,-0.031425,-0.00551755,0.0,0 STARLINK-3099,1 49446U 21104AQ  22066.91667824 -.00551755  00000-0 -31425-1 0  9990,2 49446  53.2175 295.8354 0001719  45.8403  13.6751 15.14666671  3605,6900.128000000002,95.07,523.179,520.807,0.0
49446.0,STARLINK-3099,PAYLOAD,2022-03-08 14:00:01,15.13710607,0.0001635,53.2173,292.8167,37.0657,58.7337,-0.030549,-0.0052377,0.0,0 STARLINK-3099,1 49446U 21104AQ  22067.58334491 -.00523770  00000-0 -30549-1 0  9997,2 49446  53.2173 292.8167 0001635  37.0657  58.7337 15.13710607 19260,6903.033,95.13,526.026,523.769,0.0
49446.0,STARLINK-3099,PAYLOAD,2022-03-08 22:00:00,15.13353235,0.0002004,53.2174,291.3136,35.7916,77.2337,-0.039502,-0.00667096,0.0,0 STARLINK-3099,1 49446U 21104AQ  22067.91667824 -.00667096  00000-0 -39502-1 0  9991,2 49446  53.2174 291.3136 0002004  35.7916  77.2337 15.13353235 19317,6904.12,95.153,527.368,524.601,0.0
49446.0,STARLINK-3099,PAYLOAD,2022-03-09 14:00:01,15.12419094,0.000183,53.2175,288.3015,43.0504,102.8806,-0.040388,-0.00664529,0.0,0 STARLINK-3099,1 49446U 21104AQ  22068.58334491 -.00664529  00000-0 -40388-1 0  9998,2 49446  53.2175 288.3015 0001830  43.0504 102.8806 15.12419094  3652,6906.962,95.212,530.091,527.563,0.0
49446.0,STARLINK-3099,PAYLOAD,2022-03-09 22:00:01,15.11952463,0.0002048,53.2174,286.7999,37.4735,124.1309,-0.040964,-0.00665229,0.0,0 STARLINK-3099,1 49446U 21104AQ  22068.91668981 -.00665229  00000-0 -40964-1 0  9997,2 49446  53.2174 286.7999 0002048  37.4735 124.1309 15.11952463 19461,6908.3830000000025,95.241,531.663,528.8330000000002,0.0
49446.0,STARLINK-3099,PAYLOAD,2022-03-10 14:00:01,15.10923767,0.0002134,53.2175,283.7929,43.0221,148.1115,-0.0332709999999999,-0.00527397,0.0,0 STARLINK-3099,1 49446U 21104AQ  22069.58334491 -.00527397  00000-0 -33271-1 0  9993,2 49446  53.2175 283.7929 0002134  43.0221 148.1115 15.10923767  3605,6911.518,95.306,534.8580000000002,531.909,0.0
49446.0,STARLINK-3099,PAYLOAD,2022-03-10 22:00:01,15.10551965,0.0002125,53.2175,282.296,36.6762,168.3985,-0.04249,-0.00663705,0.0,0 STARLINK-3099,1 49446U 21104AQ  22069.91668981 -.00663705  00000-0 -42490-1 0  9991,2 49446  53.2175 282.2960 0002125  36.6762 168.3985 15.10551965  3631,6912.653,95.329,535.986,533.049,0.0
49446.0,STARLINK-3099,PAYLOAD,2022-03-11 06:00:00,15.10086451,0.0001683,53.2174,280.7958,51.9062,166.4746,-0.043155,-0.00665295,0.0,0 STARLINK-3099,1 49446U 21104AQ  22070.25001157 -.00665295  00000-0 -43155-1 0  9991,2 49446  53.2174 280.7958 0001683  51.9062 166.4746 15.10086451 19668,6914.073,95.359,537.102,534.774,0.0
49446.0,STARLINK-3099,PAYLOAD,2022-03-11 14:00:01,15.09620154,0.0001845,53.2176,279.297,44.7853,186.4037,-0.043719,-0.00665363,0.0,0 STARLINK-3099,1 49446U 21104AQ  22070.58334491 -.00665363  00000-0 -43719-1 0  9999,2 49446  53.2176 279.2970 0001845  44.7853 186.4037 15.09620154  3610,6915.496999999999,95.388,538.638,536.086,0.0
